{
  "norad_id": 66843,
  "name": "STARLINK-35997",
  "history": [
    {
      "epoch": "2026-03-28T21:23:36.496896",
      "apogee_km": 573.6226232265362,
      "perigee_km": 570.3616226420563,
      "latitude_deg": 8.966995223102687,
      "longitude_deg": -130.1261145598255,
      "semi_major_axis_km": 6950.129122934296,
      "eccentricity": 0.0002346,
      "inclination_deg": 70.0007,
      "raan_deg": 285.9755,
      "arg_perigee_deg": 274.0545,
      "mean_anomaly_deg": 86.0346,
      "mean_motion_rev_day": 14.98350621
    },
    {
      "epoch": "2026-03-28T21:23:36.497760",
      "apogee_km": 573.6223452213717,
      "perigee_km": 570.3619006472209,
      "latitude_deg": 8.967006331834458,
      "longitude_deg": -130.12611359986477,
      "semi_major_axis_km": 6950.129122934296,
      "eccentricity": 0.00023456,
      "inclination_deg": 70.0007,
      "raan_deg": 285.9755,
      "arg_perigee_deg": 274.0545,
      "mean_anomaly_deg": 86.0346,
      "mean_motion_rev_day": 14.98350621
    }
  ]
}